ELECTRON R/B            
1 67230U 25307C   25355.36249005  .00071881  81069-5  20248-3 0  9997
2 67230  41.9820 123.1026 0261408 268.1410  88.9482 15.55087105    19
